GLOBALSTAR M057         
1 25943U 99058A   25160.93274926 -.00000050  00000+0  38959-3 0  9992
2 25943  52.0007   8.7927 0002974  18.2408 341.8548 12.24821226166047
GLOBALSTAR M056         
1 25945U 99058C   25160.72753917 -.00000078  00000+0  11233-3 0  9999
2 25945  51.9949 229.5056 0001459 166.6050 342.6092 12.04781107161720
GLOBALSTAR M031         
1 25946U 99058D   25159.38672618 -.00000074  00000+0  16797-3 0  9994
2 25946  51.9948 126.0235 0001023 157.4278 338.9084 12.16035793163476
GLOBALSTAR M039         
1 25961U 99062A   25160.64284348 -.00000055  00000+0  27476-3 0  9991
2 25961  51.9855 291.6959 0002070 341.8220  18.2573 12.62327797179265
GLOBALSTAR M034         
1 25962U 99062B   25160.92441771 -.00000122  00000+0 -65502-3 0  9996
2 25962  51.9899  30.2656 0014729  29.5737  72.7893 11.79446076137535
GLOBALSTAR M029         
1 25963U 99062C   25159.45897105 -.00000080  00000+0  73748-4 0  9993
2 25963  51.9788 118.8280 0002473  92.6556  64.1863 11.99897656168073
GLOBALSTAR M061         
1 25964U 99062D   25160.58350036 -.00000080  00000+0 -28698-5 0  9993
2 25964  51.9774 215.0878 0005854 306.7704 201.3405 11.76776315120283
